STARLINK-2253           
1 48596U 21041AV  26068.51384835  .00005002  00000+0  18559-3 0  9996
2 48596  53.1558 140.3593 0001556  88.0661 272.0518 15.29352118265524
TRANSPORTER-12 OBJECT AZ
1 62656U 25009AZ  26068.71026235  .00016057  00000+0  54903-3 0  9991
2 62656  97.3981 151.9913 0000987  45.3581 314.7740 15.30349724 63792
