[{"OBJECT_NAME":"STARLINK-2253","OBJECT_ID":"2021-041AV","EPOCH":"2026-03-09T12:19:56.497440","MEAN_MOTION":15.29352118,"ECCENTRICITY":0.00015568,"INCLINATION":53.1558,"RA_OF_ASC_NODE":140.3593,"ARG_OF_PERICENTER":88.0661,"MEAN_ANOMALY":272.0518,"EPHEMERIS_TYPE":0,"CLASSIFICATION_TYPE":"U","NORAD_CAT_ID":48596,"ELEMENT_SET_NO":999,"REV_AT_EPOCH":26552,"BSTAR":0.00018559269,"MEAN_MOTION_DOT":5.002e-5,"MEAN_MOTION_DDOT":0},{"OBJECT_NAME":"TRANSPORTER-12 OBJECT AZ","OBJECT_ID":"2025-009AZ","EPOCH":"2026-03-09T17:02:46.667040","MEAN_MOTION":15.30349724,"ECCENTRICITY":9.87e-5,"INCLINATION":97.3981,"RA_OF_ASC_NODE":151.9913,"ARG_OF_PERICENTER":45.3581,"MEAN_ANOMALY":314.774,"EPHEMERIS_TYPE":0,"CLASSIFICATION_TYPE":"U","NORAD_CAT_ID":62656,"ELEMENT_SET_NO":999,"REV_AT_EPOCH":6379,"BSTAR":0.00054902545,"MEAN_MOTION_DOT":0.00016057,"MEAN_MOTION_DDOT":0}]
